466P/PANSTARRS,e,12.3002,119.4050,197.2515,4.056401,0.1206404,0.46984063,65.2665,10/27.0/2024,2000,g 14.0,4.0
# From MPEC 2023-T65
467P/LINEAR-Grauer,e,2.4790,43.2657,267.7816,5.829093,0.0700330,0.05492575,48.7634,10/27.0/2024,2000,g  9.0,4.0
# From MPEC 2024-O39
468P/SidingSpring,e,50.4479,356.1237,322.5875,7.121661,0.0518600,0.44532500,17.6716,10/27.0/2024,2000,g 11.5,4.0
# From MPEC 2024-P23
469P/PANSTARRS,e,20.1738,178.9662,43.5085,4.341070,0.1089705,0.30775906,315.5937,10/27.0/2024,2000,g 13.5,4.0
# From MPEC 2024-R10
470P/PANSTARRS,e,8.8446,246.1758,151.8017,4.469160,0.1043194,0.38980366,32.8347,10/27.0/2024,2000,g 15.5,4.0
# From MPEC 2024-GJ3
471P/,e,4.7951,283.3059,94.8970,5.704653,0.0723370,0.62805776,22.5634,10/27.0/2024,2000,g 12.0,4.0
# From MPEC 2024-UA9
472P/NEAT-LINEAR,e,10.8283,205.9483,218.9092,7.818038,0.0450876,0.56648881,4.6852,10/27.0/2024,2000,g 10.5,4.0
# From MPEC 2024-MB8
473P/NEAT,e,56.9070,22.1856,42.9233,7.969705,0.0438067,0.82359230,10.6781,10/27.0/2024,2000,g 13.5,4.0
# From MPEC 2024-B74
474P/Hogan,e,1.0970,26.7455,11.2586,3.130291,0.1779619,0.18824189,83.5021,10/27.0/2024,2000,g 15.5,4.0
# From MPEC 2024-O39
475P/Spacewatch-LINEAR,e,14.5243,147.3709,40.3915,7.312365,0.0498445,0.44238951,7.3488,10/27.0/2024,2000,g 11.0,4.0
# From MPEC 2024-Q20
476P/PANSTARRS,e,19.0047,57.0578,46.7357,4.779534,0.0943248,0.34653413,0.9878,10/27.0/2024,2000,g 12.5,4.0
# From MPEC 2024-GJ3
477P/PANSTARRS,e,8.9143,59.1555,305.9406,3.003695,0.1893304,0.41747068,57.8136,10/27.0/2024,2000,g 14.5,4.0
# From MPEC 2024-L77
478P/ATLAS,e,12.5247,127.2695,13.1978,3.646504,0.1415432,0.34357454,25.1911,10/27.0/2024,2000,g 13.5,4.0
# From MPEC 2024-PC5
479P/Elenin,e,15.3985,295.8314,263.5227,5.623762,0.0739033,0.77885765,12.9152,10/27.0/2024,2000,g 15.0,4.0
# From MPEC 2024-GJ3
480P/PANSTARRS,e,13.7175,229.9772,214.3217,4.608951,0.0996095,0.24639992,55.0539,10/27.0/2024,2000,g 12.0,4.0
# From MPEC 2024-L77
481P/Lemmon-PANSTARRS,e,6.0826,93.5519,356.7302,4.679588,0.0973627,0.34347097,46.3409,10/27.0/2024,2000,g 13.5,4.0
# From MPEC 2024-JU4
482P/PANSTARRS,e,24.4848,126.0892,339.6854,3.755837,0.1354079,0.49235202,69.4551,10/27.0/2024,2000,g 13.5,4.0
# From MPEC 2024-R10
483P-A/PANSTARRS,e,14.2538,199.6616,48.4776,3.190190,0.1729734,0.22438637,168.9347,10/27.0/2024,2000,g 13.5,4.0
# From MPEC 2024-R10
483P-B/PANSTARRS,e,14.2546,199.6610,48.4674,3.190123,0.1729788,0.22432551,168.9693,10/27.0/2024,2000,g 17.0,4.0
# From MPEC 2024-DD5
484P/Spacewatch,e,14.4752,265.3951,240.7679,3.757880,0.1352975,0.43261698,193.4624,10/27.0/2024,2000,g 16.0,4.0
# From MPEC 2024-JU4
485P/Sheppard-Tholen,e,10.0161,261.6455,196.0403,6.847970,0.0549998,0.41712207,23.6016,10/27.0/2024,2000,g 13.0,4.0
# From MPEC 2024-R10
486P/Leonard,e,2.2095,219.0279,93.9482,3.628803,0.1425801,0.36373019,337.3505,10/27.0/2024,2000,g 14.5,4.0
# From MPEC 2024-UA9
487P/SidingSpring,e,39.3698,49.2110,0.8643,5.165619,0.0839500,0.64864013,0.5330,10/27.0/2024,2000,g 13.5,4.0
# From MPEC 2024-UA9
488P/NEAT-PANSTARRS,e,11.3642,324.0699,1.4684,3.732900,0.1366578,0.55050898,21.9762,10/27.0/2024,2000,g 16.5,4.0
# From MPEC 2024-Q14
489P/Denning,e,4.0269,20.6114,109.4479,4.421622,0.1060063,0.64696067,317.2374,10/27.0/2024,2000,g 15.5,4.0
# From MPEC 2024-Q25
490P/ATLAS,e,12.2663,307.6078,332.5234,3.029991,0.1868711,0.64727236,5.3843,10/27.0/2024,2000,g 17.5,4.0
# From MPEC 2024-Q26
491P/Spacewatch-PANSTARRS,e,9.3651,311.6904,298.9233,5.013733,0.0877935,0.25869374,4.4501,10/27.0/2024,2000,g 13.5,4.0
# From MPEC 2024-UA9
492P/LINEAR,e,11.4001,11.3160,40.9993,5.765989,0.0711858,0.69091042,7.0107,10/27.0/2024,2000,g 15.0,4.0
# From MPEC 2024-UA9
493P/LONEOS,e,24.1137,1.1132,83.1776,7.158252,0.0514628,0.46579755,337.1443,10/27.0/2024,2000,g 12.0,2.0
# From MPC107687
1I/`Oumuamua,h,09/09.4886/2017,122.6778,24.5997,241.6845,1.199252,0.255240,2000,23.0,2.0
# From MPEC 2023-L37
2I/Borisov,h,12/08.5548/2019,44.0527,308.1480,209.1251,3.356633,2.006548,2000,11.0,4.0
